1 39777U 97051AAJ 26114.72227336  .00011040  00000+0  22353-2 0  9993
2 39777  85.9564 110.3077 0061765  96.9390 263.8850 14.59982472621239
